LEMUR-2-JOHANLORAN      
1 44084U 19018G   22285.75339108  .00068249  00000+0  14945-2 0  9997
2 44084  97.3007 347.1867 0008660  53.6102 306.5944 15.43839515196822
LEMUR-2-BEAUDACIOUS     
1 44085U 19018H   22286.10889382  .00035989  00000+0  99679-3 0  9995
2 44085  97.2995 345.7355 0010630  59.6587 300.5708 15.36829990196759
LEMUR-2-ELHAM           
1 44086U 19018J   22286.14732583  .00046356  00000+0  11562-2 0  9994
2 44086  97.3032 347.4618 0009336  51.4527 308.7554 15.40016084196856
LEMUR-2-VICTOR-ANDREW   
1 44087U 19018K   22285.73534707  .00067638  00000+0  14702-2 0  9992
2 44087  97.3037 347.8850 0008247  53.6230 306.5778 15.44065553196852
LEMUR-2-LILLYJO         
1 44396U 19038L   22285.86472123  .00027280  00000+0  11922-2 0  9994
2 44396  97.6307 256.5723 0022838  78.5183 281.8615 15.21827611180919
LEMUR-2-WANLI           
1 44402U 19038S   22285.86191301  .00027456  00000+0  12292-2 0  9994
2 44402  97.6328 256.2671 0022732  81.1405 279.2402 15.21004788180893
LEMUR-2-MORAG           
1 44403U 19038T   22285.86757816  .00016067  00000+0  71812-3 0  9994
2 44403  97.6365 257.2703 0021776  81.3643 279.0058 15.21197116180922
LEMUR-2-DUSTINTHEWIND   
1 44405U 19038V   22286.19991835  .00021412  00000+0  96769-3 0  9992
2 44405  97.6331 256.4556 0022844  78.8182 281.5619 15.20731365180942
LEMUR-2-ALEX-MADDY      
1 44407U 19038X   22285.87566003  .00014767  00000+0  71153-3 0  9998
2 44407  97.6420 255.9603 0022624  87.4144 272.9680 15.18607662180817
LEMUR-2-EJATTA          
1 44409U 19038Z   22285.67721198  .00023627  00000+0  10276-2 0  9999
2 44409  97.6306 256.7146 0022049  76.6466 283.7226 15.22039439180925
LEMUR-2-GREGROBINSON    
1 44411U 19038AB  22285.49369899  .00032505  00000+0  14455-2 0  9996
2 44411  97.6366 256.8276 0022772  85.8067 274.5770 15.21197108180526
LEMUR-2-YNDRD           
1 44413U 19038AD  22285.65314621  .00022129  00000+0  10700-2 0  9999
2 44413  97.6408 255.4833 0022894  88.2848 272.1008 15.18390094180789
LEMUR-2-JPGSQUARED      
1 44855U 19089D   22285.88405153  .00010789  00000+0  76638-3 0  9993
2 44855  36.9636 120.1688 0003706  89.2607 270.8561 15.04192704155693
LEMUR-2-HIMOMANDDAD     
1 44860U 19089J   22285.87018347  .00012392  00000+0  88483-3 0  9996
2 44860  36.9637 121.8867 0003902  79.3747 280.7436 15.03951660155559
LEMUR-2-PAPPY           
1 44861U 19089K   22285.85512970  .00012020  00000+0  86026-3 0  9995
2 44861  36.9636 121.7564 0003799  80.7568 279.3605 15.03874858155615
LEMUR-2-THEODOSIA       
1 44863U 19089M   22285.86536266  .00011361  00000+0  80730-3 0  9995
2 44863  36.9629 120.8904 0004009  87.1174 273.0028 15.04162691155533
LEMUR-2-ETHANOAKES      
1 46298U 20061AC  22286.13114104  .00025052  00000+0  11674-2 0  9997
2 46298  97.4391 355.8126 0002399 125.1983 234.9476 15.19874751116366
LEMUR-2-OSCARLATOR      
1 46299U 20061AD  22285.44938568  .00030871  00000+0  14196-2 0  9996
2 46299  97.4402 355.2327 0001898 133.9009 226.2383 15.20289179116295
LEMUR-2-SCHMIDTFALL     
1 46315U 20061AV  22285.62641177  .00034305  00000+0  15496-2 0  9992
2 46315  97.4409 355.9544 0003271 114.4179 245.7398 15.20877132116393
LEMUR-2-DJUPROERA       
1 46316U 20061AW  22286.19328207  .00030947  00000+0  13698-2 0  9992
2 46316  97.4402 356.6650 0003428 111.3688 248.7914 15.21597324116499
LEMUR-2-SQUAREJAWS      
1 46317U 20061AX  22286.16265491  .00029213  00000+0  13059-2 0  9990
2 46317  97.4398 356.5704 0003282 111.0721 249.0866 15.21271529116492
LEMUR-2-URSA-AVION      
1 46318U 20061AY  22285.63768689  .00033738  00000+0  15122-2 0  9999
2 46318  97.4399 356.0420 0003458 109.7609 250.4000 15.21146868116413
LEMUR-2-SLICERS         
1 46500U 20068Q   22285.40446873  .00016976  00000+0  11260-2 0  9996
2 46500  97.7338 226.2804 0009835 264.2654  95.7432 15.07293066111712
LEMUR-2-DAYWZAGOODDAY   
1 46501U 20068R   22285.58646544  .00016970  00000+0  11156-2 0  9991
2 46501  97.7223 226.6975 0010180 251.7594 108.2632 15.07619446111747
LEMUR-2-SUSURRUS        
1 46502U 20068S   22285.80361069  .00015628  00000+0  10376-2 0  9995
2 46502  97.7305 226.6735 0009786 258.4551 101.5654 15.07276967111770
LEMUR-2-NICHOL          
1 46503U 20068T   22285.56071682  .00016498  00000+0  10959-2 0  9991
2 46503  97.7294 226.3794 0010398 266.5404  93.4685 15.07237819111730
LEMUR-2-OZARAK          
1 46908U 20081D   22285.93616767  .00014889  00000+0  10850-2 0  9997
2 46908  36.9033 245.9979 0007906 300.8998  59.0974 15.03108755105844
LEMUR-2-JINDRA          
1 46909U 20081E   22286.22192459  .00017455  00000+0  12478-2 0  9998
2 46909  36.9028 242.7355 0008024 309.0904  50.9128 15.03785091105915
LEMUR-2-WALLACE         
1 46910U 20081F   22286.24618062  .00015140  00000+0  10909-2 0  9991
2 46910  36.9020 242.9185 0009127 303.8853  56.1033 15.03519717105904
LEMUR-2-JEREMIAH        
1 46911U 20081G   22285.23275967  .00013412  00000+0  97287-3 0  9998
2 46911  36.9069 248.7394 0007150 308.6539  51.3672 15.03317279105761
LEMUR-2-NEVA            
1 47450U 21006AP  22286.13586467  .00018867  00000+0  88401-3 0  9992
2 47450  97.4319 343.9357 0009351 221.0437 139.0095 15.19710257 95151
LEMUR-2-SAOIRSEDH5GUO   
1 47453U 21006AS  22286.12701064  .00022131  00000+0  10268-2 0  9990
2 47453  97.4342 344.0235 0007995 222.0922 137.9699 15.20027370 95144
LEMUR-2-NALLYWACKER     
1 47457U 21006AW  22286.10929630  .00021660  00000+0  99887-3 0  9994
2 47457  97.4317 343.9850 0008919 221.2785 138.7777 15.20233379 95151
LEMUR-2-MANGO1          
1 47493U 21006CJ  22285.43132264  .00018687  00000+0  90984-3 0  9992
2 47493  97.4273 342.2953 0008626 227.8760 132.1741 15.18385101 95010
LEMUR-2-RUAIRI-EILIDH   
1 47511U 21006DC  22286.10677641  .00018692  00000+0  90323-3 0  9994
2 47511  97.4256 342.5850 0006279 225.4531 134.6191 15.18662917 95090
LEMUR-2-JENNIFERSONG    
1 47525U 21006DR  22285.44856464  .00025940  00000+0  11971-2 0  9992
2 47525  97.4276 342.9834 0009040 223.2960 136.7566 15.20170352 95059
LEMUR-2-CHANTAL         
1 47529U 21006DV  22285.40264907  .00022138  00000+0  10915-2 0  9990
2 47529  97.4268 341.6514 0005767 230.0801 129.9926 15.17928700 95921
LEMUR-2-NOOBNOOB        
1 47538U 21006DY  22286.11778025  .00019718  00000+0  93641-3 0  9998
2 47538  97.4326 343.7905 0008930 222.1333 137.9216 15.19237176 95136
LEMUR-2-AMANDA-SVANTE   
1 48269U 21034B   22286.16178533  .00005930  00000+0  64877-3 0  9994
2 48269  97.7376 354.6205 0004383  63.2013 296.9652 14.88177318 79034
LEMUR-2-SPECIAL-K       
1 48273U 21034F   22286.17112097  .00005837  00000+0  63888-3 0  9990
2 48273  97.7376 354.6065 0004276  59.0812 301.0824 14.88164613 79048
LEMUR-2-JACKSON         
1 48885U 21059G   22285.61409015  .00025613  00000+0  12198-2 0  9994
2 48885  97.5677  55.1433 0008102  58.8036 301.3992 15.19092068 71712
LEMUR-2-ANNABANANA      
1 48923U 21059AW  22285.60698199  .00028298  00000+0  12868-2 0  9995
2 48923  97.5618  55.5562 0011063  47.6572 312.5598 15.20643140 71764
LEMUR-2-JOHN-TREIRES    
1 48925U 21059AY  22285.83678733  .00024416  00000+0  10818-2 0  9995
2 48925  97.5692  56.4717 0013299  48.0151 312.2215 15.21540158 71827
LEMUR-2-AC-CUBED        
1 48927U 21059BA  22285.61015077  .00024725  00000+0  11250-2 0  9993
2 48927  97.5669  56.0185 0015799  52.1092 308.1569 15.20593394 71785
LEMUR-2-MERIMA          
1 48929U 21059BC  22285.30629742  .00028830  00000+0  12810-2 0  9995
2 48929  97.5623  55.7991 0015523  52.5438 307.7207 15.21378373 71751
LEMUR-2-CARLSANTAMARI   
1 48959U 21059CJ  22285.62974079  .00042381  00000+0  17405-2 0  9991
2 48959  97.5659  56.8549 0014467  54.3231 305.9350 15.23979886 71848
LEMUR-2-RAMONAMAE       
1 51021U 22002AP  22286.15616968  .00020854  00000+0  10395-2 0  9995
2 51021  97.4758 351.6304 0008998  37.1612 323.0243 15.17537551 41256
LEMUR-2-KING-JULIEN     
1 51022U 22002AQ  22286.16886461  .00019695  00000+0  98618-3 0  9990
2 51022  97.4738 351.5360 0008769  34.0642 326.1153 15.17393503 41252
LEMUR-2-ROHOVITHSA      
1 51036U 22002BE  22285.76918166  .00012484  00000+0  65712-3 0  9996
2 51036  97.4767 350.9548 0009562  38.9181 321.2739 15.15731299 41176
LEMUR-2-MIRIWARI        
1 51054U 22002BY  22285.64441605  .00015026  00000+0  79143-3 0  9990
2 51054  97.4757 350.7891 0008626  34.4605 325.7185 15.15672463 41155
LEMUR-2-DJIRANG         
1 51058U 22002CC  22286.17338305  .00015759  00000+0  82960-3 0  9999
2 51058  97.4739 351.2371 0008264  32.7027 327.4716 15.15682064 41231
LEMUR-2-KRYWE           
1 51100U 22003G   22286.04677816  .00032031  00000+0  84280-3 0  9996
2 51100  44.9860 138.5178 0009178 197.3597 162.6977 15.38020955 41662
LEMUR-2-TENNYSONLILY    
1 52732U 22057A   22285.75143511  .00019889  00000+0  11000-2 0  9999
2 52732  97.5317  38.7868 0009467 139.4993 220.6945 15.13867589 21168
LEMUR-2-VANDENDRIES     
1 52733U 22057B   22285.59087506  .00013066  00000+0  72226-3 0  9992
2 52733  97.5211  38.5010 0008622 132.3403 227.8560 15.13986644 21143
LEMUR-2-KAREN_B         
1 52736U 22057E   22285.78562666  .00015043  00000+0  82526-3 0  9992
2 52736  97.5190  38.6613 0008093 128.1970 231.9992 15.14229168 21176
LEMUR-2-HANCOM-1        
1 52740U 22057J   22285.26749953  .00019000  00000+0  10539-2 0  9997
2 52740  97.5389  38.4917 0011385 132.0318 228.1884 15.13755698 21094
LEMUR-2-MIMI1307        
1 52769U 22057AP  22285.94766876  .00005931  00000+0  32594-3 0  9990
2 52769  97.5368  39.3920 0015184 108.9895 251.2984 15.14381555 21219
